ONEWEB-0633             
1 56074U 23043AE  26171.28150486 -.00000043  00000+0 -14897-3 0  9995
2 56074  87.9010 258.5726 0001905 112.8806 247.2526 13.15547028156810
ONEWEB-0634             
1 56075U 23043AF  26171.26725155 -.00000056  00000+0 -18380-3 0  9990
2 56075  87.9002 258.6156 0002349 102.2359 257.9034 13.15548985156803
ONEWEB-0635             
1 56076U 23043AG  26171.18642410 -.00000050  00000+0 -16605-3 0  9996
2 56076  87.9011 258.5943 0001941  92.5906 267.5447 13.15547205156824
ONEWEB-0636             
1 56077U 23043AH  26171.17851313  .00000017  00000+0  11361-4 0  9996
2 56077  87.9010 258.6022 0001951  94.3854 265.7499 13.15549952156802
ONEWEB-0637             
1 56078U 23043AJ  26171.47641088  .00000108  00000+0  25234-3 0  9990
2 56078  87.9003 258.5592 0002250  94.8907 265.2481 13.15549567156867
ONEWEB-0647             
1 56079U 23043AK  26171.47166516  .00002825  00000+0  74691-2 0  9997
2 56079  87.9002 258.5726 0002100  97.8786 262.2582 13.15535902156854
ONEWEB-0651             
1 56080U 23043AL  26171.46690498  .00000242  00000+0  60812-3 0  9991
2 56080  87.9001 258.5672 0002064  93.7050 266.4317 13.15549048158055
ONEWEB-0718             
1 56081U 23043AM  26171.31002635  .00000189  00000+0  46707-3 0  9993
2 56081  87.9001 258.5791 0002410 107.7132 252.4261 13.15546660156845
ONEWEB-0561             
1 56710U 23068A   26171.30370458  .00000126  00000+0  27802-3 0  9995
2 56710  87.9197 273.8219 0001690  91.8538 268.2789 13.20773395149910
ONEWEB-0668             
1 56711U 23068B   26171.39280417  .00000089  00000+0  19928-3 0  9998
2 56711  87.9097 228.1360 0002581  96.3592 263.7833 13.16594976152207
ONEWEB-0676             
1 56712U 23068C   26171.40071323  .00000056  00000+0  11362-3 0  9993
2 56712  87.9098 228.1404 0001989  87.9617 272.1742 13.16593432152123
ONEWEB-0677             
1 56713U 23068D   26171.36767352  .00000004  00000+0 -22709-4 0  9995
2 56713  87.9196 273.8008 0002211  91.0703 269.0683 13.20770630150221
ONEWEB-0678             
1 56714U 23068E   26171.27834059 -.00000052  00000+0 -17126-3 0  9995
2 56714  87.9009 258.5776 0001721 103.2834 256.8488 13.15548676149696
ONEWEB-0679             
1 56715U 23068F   26171.20754606  .00000476  00000+0  12113-2 0  9996
2 56715  87.9086 228.1703 0002611  88.9147 271.2283 13.16598222152129
ONEWEB-0680             
1 56716U 23068G   26171.42651856 -.00000038  00000+0 -12411-3 0  9992
2 56716  87.9259 243.3268 0002614  95.1192 265.0241 13.21828505151524
ONEWEB-0681             
1 56717U 23068H   26171.48287505 -.00000033  00000+0 -11064-3 0  9993
2 56717  87.9255 243.3166 0001813  70.0939 290.0390 13.21827452151522
ONEWEB-0682             
1 56718U 23068J   26171.22605985  .00000127  00000+0  30250-3 0  9992
2 56718  87.9007 258.5887 0002516  97.0138 263.1279 13.15548651149851
ONEWEB-0683             
1 56719U 23068K   26171.47799653  .00000124  00000+0  29505-3 0  9994
2 56719  87.9012 258.5383 0002300 101.5597 258.5792 13.15549770149851
ONEWEB-0684             
1 56720U 23068L   26171.18168964 -.00000015  00000+0 -73140-4 0  9995
2 56720  87.9010 258.5871 0001732 141.5581 218.5673 13.15548792149642
ONEWEB-0686             
1 56721U 23068M   26171.39596970  .00000045  00000+0  85145-4 0  9990
2 56721  87.9085 228.1559 0002254 104.1654 255.9728 13.16595348152131
ONEWEB-0694             
1 56722U 23068N   26171.40229961  .00000043  00000+0  78222-4 0  9992
2 56722  87.9107 228.1198 0002550  96.0014 264.1407 13.16594959152193
ONEWEB-0696             
1 56723U 23068P   26171.21495562 -.00000038  00000+0 -13387-3 0  9990
2 56723  87.9005 258.6196 0001498 101.4204 258.7095 13.15546783149761
ONEWEB-0703             
1 56724U 23068Q   26171.30049838  .00002226  00000+0  58757-2 0  9990
2 56724  87.8984 258.5840 0001380  94.4542 265.6746 13.15571505149667
ONEWEB-0721             
1 56725U 23068R   26171.16625916  .00000105  00000+0  21610-3 0  9995
2 56725  86.6765  84.5656 0001892  77.8720 282.2625 13.22469836158331
ONEWEB-0015             
1 61594U 24188A   26171.28503105 -.00000123  00000+0 -38367-3 0  9996
2 61594  87.8881  20.4763 0002105  72.5583 287.5775 13.11414028 84869
ONEWEB-0687             
1 61595U 24188B   26170.96448522  .00000036  00000+0  58525-4 0  9992
2 61595  87.9126   5.3238 0002353  85.7118 274.4282 13.17648647 86263
ONEWEB-0688             
1 61596U 24188C   26171.44879490  .00003921  00000+0  10064-1 0  9998
2 61596  87.9125   5.2272 0002778  61.0482 299.0928 13.17631640 86324
ONEWEB-0689             
1 61597U 24188D   26171.31893299 -.00000283  00000+0 -83330-3 0  9996
2 61597  87.8899  20.4281 0002101  90.8114 269.3255 13.11418663 84865
ONEWEB-0690             
1 61598U 24188E   26171.32912559  .00000339  00000+0  92038-3 0  9994
2 61598  87.8892  20.4376 0001219  79.0008 281.1257 13.11418126 85043
ONEWEB-0691             
1 61599U 24188F   26171.32403958  .00000206  00000+0  54503-3 0  9991
2 61599  87.8904  20.3475 0002112  78.3966 281.7399 13.11418691 84897
