OBJECT_NAME,OBJECT_ID,EPOCH,MEAN_MOTION,ECCENTRICITY,INCLINATION,RA_OF_ASC_NODE,ARG_OF_PERICENTER,MEAN_ANOMALY,EPHEMERIS_TYPE,CLASSIFICATION_TYPE,NORAD_CAT_ID,ELEMENT_SET_NO,REV_AT_EPOCH,BSTAR,MEAN_MOTION_DOT,MEAN_MOTION_DDOT
ONEWEB-0633,2023-043AE,2026-06-20T06:45:22.019904,13.15547028,.0001905,87.9010,258.5726,112.8806,247.2526,0,U,56074,999,15681,-.14897E-3,-.43E-6,0
ONEWEB-0634,2023-043AF,2026-06-20T06:24:50.533920,13.15548985,.0002349,87.9002,258.6156,102.2359,257.9034,0,U,56075,999,15680,-.1838E-3,-.56E-6,0
ONEWEB-0635,2023-043AG,2026-06-20T04:28:27.042240,13.15547205,.00019416,87.9011,258.5943,92.5906,267.5447,0,U,56076,999,15682,-.16604623E-3,-.5E-6,0
ONEWEB-0636,2023-043AH,2026-06-20T04:17:03.534432,13.15549952,.00019517,87.9010,258.6022,94.3854,265.7499,0,U,56077,999,15680,.11360976E-4,.17E-6,0
ONEWEB-0637,2023-043AJ,2026-06-20T11:26:01.900032,13.15549567,.000225,87.9003,258.5592,94.8907,265.2481,0,U,56078,999,15686,.25234E-3,.108E-5,0
ONEWEB-0647,2023-043AK,2026-06-20T11:19:11.869824,13.15535902,.00021,87.9002,258.5726,97.8786,262.2582,0,U,56079,999,15685,.74691E-2,.2825E-4,0
ONEWEB-0651,2023-043AL,2026-06-20T11:12:20.590272,13.15549048,.0002064,87.9001,258.5672,93.7050,266.4317,0,U,56080,999,15805,.60812E-3,.242E-5,0
ONEWEB-0718,2023-043AM,2026-06-20T07:26:26.276640,13.15546660,.000241,87.9001,258.5791,107.7132,252.4261,0,U,56081,999,15684,.46707E-3,.189E-5,0
ONEWEB-0561,2023-068A,2026-06-20T07:17:20.075712,13.20773395,.000169,87.9197,273.8219,91.8538,268.2789,0,U,56710,999,14991,.27802E-3,.126E-5,0
ONEWEB-0668,2023-068B,2026-06-20T09:25:38.280288,13.16594976,.0002581,87.9097,228.1360,96.3592,263.7833,0,U,56711,999,15220,.19928E-3,.89E-6,0
ONEWEB-0676,2023-068C,2026-06-20T09:37:01.623072,13.16593432,.0001989,87.9098,228.1404,87.9617,272.1742,0,U,56712,999,15212,.11362E-3,.56E-6,0
ONEWEB-0677,2023-068D,2026-06-20T08:49:26.992128,13.20770630,.0002211,87.9196,273.8008,91.0703,269.0683,0,U,56713,999,15022,-.22709E-4,.4E-7,0
ONEWEB-0678,2023-068E,2026-06-20T06:40:48.626976,13.15548676,.0001721,87.9009,258.5776,103.2834,256.8488,0,U,56714,999,14969,-.17126E-3,-.52E-6,0
ONEWEB-0679,2023-068F,2026-06-20T04:58:51.979584,13.16598222,.00026116,87.9086,228.1703,88.9147,271.2283,0,U,56715,999,15212,.12112738E-2,.476E-5,0
ONEWEB-0680,2023-068G,2026-06-20T10:14:11.203584,13.21828505,.0002614,87.9259,243.3268,95.1192,265.0241,0,U,56716,999,15152,-.12411E-3,-.38E-6,0
ONEWEB-0681,2023-068H,2026-06-20T11:35:20.404320,13.21827452,.0001813,87.9255,243.3166,70.0939,290.0390,0,U,56717,999,15152,-.11064E-3,-.33E-6,0
ONEWEB-0682,2023-068J,2026-06-20T05:25:31.571040,13.15548651,.0002516,87.9007,258.5887,97.0138,263.1279,0,U,56718,999,14985,.3025E-3,.127E-5,0
ONEWEB-0683,2023-068K,2026-06-20T11:28:18.900192,13.15549770,.00023,87.9012,258.5383,101.5597,258.5792,0,U,56719,999,14985,.29505E-3,.124E-5,0
ONEWEB-0684,2023-068L,2026-06-20T04:21:37.984896,13.15548792,.00017325,87.9010,258.5871,141.5581,218.5673,0,U,56720,999,14964,-.73139988E-4,-.15E-6,0
ONEWEB-0686,2023-068M,2026-06-20T09:30:11.782080,13.16595348,.0002254,87.9085,228.1559,104.1654,255.9728,0,U,56721,999,15213,.85145E-4,.45E-6,0
ONEWEB-0694,2023-068N,2026-06-20T09:39:18.686304,13.16594959,.000255,87.9107,228.1198,96.0014,264.1407,0,U,56722,999,15219,.78222E-4,.43E-6,0
ONEWEB-0696,2023-068P,2026-06-20T05:09:32.165568,13.15546783,.00014982,87.9005,258.6196,101.4204,258.7095,0,U,56723,999,14976,-.13387411E-3,-.38E-6,0
ONEWEB-0703,2023-068Q,2026-06-20T07:12:43.060032,13.15571505,.000138,87.8984,258.5840,94.4542,265.6746,0,U,56724,999,14966,.58757E-2,.2226E-4,0
ONEWEB-0721,2023-068R,2026-06-20T03:59:24.791424,13.22469836,.00018924,86.6765,84.5656,77.8720,282.2625,0,U,56725,999,15833,.216096E-3,.105E-5,0
ONEWEB-0015,2024-188A,2026-06-20T06:50:26.682720,13.11414028,.0002105,87.8881,20.4763,72.5583,287.5775,0,U,61594,999,8486,-.38367E-3,-.123E-5,0
ONEWEB-0687,2024-188B,2026-06-19T23:08:51.523008,13.17648647,.00023533,87.9126,5.3238,85.7118,274.4282,0,U,61595,999,8626,.58525219E-4,.36E-6,0
ONEWEB-0688,2024-188C,2026-06-20T10:46:15.879360,13.17631640,.0002778,87.9125,5.2272,61.0482,299.0928,0,U,61596,999,8632,.10064E-1,.3921E-4,0
ONEWEB-0689,2024-188D,2026-06-20T07:39:15.810336,13.11418663,.0002101,87.8899,20.4281,90.8114,269.3255,0,U,61597,999,8486,-.8333E-3,-.283E-5,0
ONEWEB-0690,2024-188E,2026-06-20T07:53:56.450976,13.11418126,.0001219,87.8892,20.4376,79.0008,281.1257,0,U,61598,999,8504,.92038E-3,.339E-5,0
ONEWEB-0691,2024-188F,2026-06-20T07:46:37.019712,13.11418691,.0002112,87.8904,20.3475,78.3966,281.7399,0,U,61599,999,8489,.54503E-3,.206E-5,0
